<?xml version="1.0" encoding="UTF-8"?>
<ndm xmlns:xsi="http://www.w3.org/2001/XMLSchema-instance" xsi:noNamespaceSchemaLocation="https://sanaregistry.org/r/ndmxml_unqualified/ndmxml-2.0.0-master-2.0.xsd">
<omm id="CCSDS_OMM_VERS" version="2.0">
<header><CREATION_DATE/><ORIGINATOR/></header><body><segment><metadata><OBJECT_NAME>IRIDIUM 106</OBJECT_NAME><OBJECT_ID>2017-003A</OBJECT_ID><CENTER_NAME>EARTH</CENTER_NAME><REF_FRAME>TEME</REF_FRAME><TIME_SYSTEM>UTC</TIME_SYSTEM><MEAN_ELEMENT_THEORY>SGP4</MEAN_ELEMENT_THEORY></metadata><data><meanElements><EPOCH>2025-11-13T13:55:57.976896</EPOCH><MEAN_MOTION>14.34219932</MEAN_MOTION><ECCENTRICITY>.00016399</ECCENTRICITY><INCLINATION>86.4006</INCLINATION><RA_OF_ASC_NODE>178.6266</RA_OF_ASC_NODE><ARG_OF_PERICENTER>91.0016</ARG_OF_PERICENTER><MEAN_ANOMALY>269.1368</MEAN_ANOMALY></meanElements><tleParameters><EPHEMERIS_TYPE>0</EPHEMERIS_TYPE><CLASSIFICATION_TYPE>U</CLASSIFICATION_TYPE><NORAD_CAT_ID>41917</NORAD_CAT_ID><ELEMENT_SET_NO>999</ELEMENT_SET_NO><REV_AT_EPOCH>46230</REV_AT_EPOCH><BSTAR>.13254139E-3</BSTAR><MEAN_MOTION_DOT>.391E-5</MEAN_MOTION_DOT><MEAN_MOTION_DDOT>0</MEAN_MOTION_DDOT></tleParameters></data></segment></body></omm>
<omm id="CCSDS_OMM_VERS" version="2.0">
<header><CREATION_DATE/><ORIGINATOR/></header><body><segment><metadata><OBJECT_NAME>IRIDIUM 103</OBJECT_NAME><OBJECT_ID>2017-003B</OBJECT_ID><CENTER_NAME>EARTH</CENTER_NAME><REF_FRAME>TEME</REF_FRAME><TIME_SYSTEM>UTC</TIME_SYSTEM><MEAN_ELEMENT_THEORY>SGP4</MEAN_ELEMENT_THEORY></metadata><data><meanElements><EPOCH>2025-11-13T08:36:18.062496</EPOCH><MEAN_MOTION>14.34219509</MEAN_MOTION><ECCENTRICITY>.00019546</ECCENTRICITY><INCLINATION>86.4005</INCLINATION><RA_OF_ASC_NODE>178.6197</RA_OF_ASC_NODE><ARG_OF_PERICENTER>72.9587</ARG_OF_PERICENTER><MEAN_ANOMALY>287.1823</MEAN_ANOMALY></meanElements><tleParameters><EPHEMERIS_TYPE>0</EPHEMERIS_TYPE><CLASSIFICATION_TYPE>U</CLASSIFICATION_TYPE><NORAD_CAT_ID>41918</NORAD_CAT_ID><ELEMENT_SET_NO>999</ELEMENT_SET_NO><REV_AT_EPOCH>46229</REV_AT_EPOCH><BSTAR>.10893736E-3</BSTAR><MEAN_MOTION_DOT>.325E-5</MEAN_MOTION_DOT><MEAN_MOTION_DDOT>0</MEAN_MOTION_DDOT></tleParameters></data></segment></body></omm>
<omm id="CCSDS_OMM_VERS" version="2.0">
<header><CREATION_DATE/><ORIGINATOR/></header><body><segment><metadata><OBJECT_NAME>IRIDIUM 109</OBJECT_NAME><OBJECT_ID>2017-003C</OBJECT_ID><CENTER_NAME>EARTH</CENTER_NAME><REF_FRAME>TEME</REF_FRAME><TIME_SYSTEM>UTC</TIME_SYSTEM><MEAN_ELEMENT_THEORY>SGP4</MEAN_ELEMENT_THEORY></metadata><data><meanElements><EPOCH>2025-11-12T21:02:10.350816</EPOCH><MEAN_MOTION>14.34216682</MEAN_MOTION><ECCENTRICITY>.0001908</ECCENTRICITY><INCLINATION>86.4016</INCLINATION><RA_OF_ASC_NODE>178.8766</RA_OF_ASC_NODE><ARG_OF_PERICENTER>81.3891</ARG_OF_PERICENTER><MEAN_ANOMALY>278.7521</MEAN_ANOMALY></meanElements><tleParameters><EPHEMERIS_TYPE>0</EPHEMERIS_TYPE><CLASSIFICATION_TYPE>U</CLASSIFICATION_TYPE><NORAD_CAT_ID>41919</NORAD_CAT_ID><ELEMENT_SET_NO>999</ELEMENT_SET_NO><REV_AT_EPOCH>46219</REV_AT_EPOCH><BSTAR>-.30664057E-4</BSTAR><MEAN_MOTION_DOT>-.66E-6</MEAN_MOTION_DOT><MEAN_MOTION_DDOT>0</MEAN_MOTION_DDOT></tleParameters></data></segment></body></omm>
<omm id="CCSDS_OMM_VERS" version="2.0">
<header><CREATION_DATE/><ORIGINATOR/></header><body><segment><metadata><OBJECT_NAME>IRIDIUM 102</OBJECT_NAME><OBJECT_ID>2017-003D</OBJECT_ID><CENTER_NAME>EARTH</CENTER_NAME><REF_FRAME>TEME</REF_FRAME><TIME_SYSTEM>UTC</TIME_SYSTEM><MEAN_ELEMENT_THEORY>SGP4</MEAN_ELEMENT_THEORY></metadata><data><meanElements><EPOCH>2025-11-13T07:59:46.118688</EPOCH><MEAN_MOTION>14.34219967</MEAN_MOTION><ECCENTRICITY>.00020441</ECCENTRICITY><INCLINATION>86.4006</INCLINATION><RA_OF_ASC_NODE>178.6145</RA_OF_ASC_NODE><ARG_OF_PERICENTER>87.0559</ARG_OF_PERICENTER><MEAN_ANOMALY>273.0871</MEAN_ANOMALY></meanElements><tleParameters><EPHEMERIS_TYPE>0</EPHEMERIS_TYPE><CLASSIFICATION_TYPE>U</CLASSIFICATION_TYPE><NORAD_CAT_ID>41920</NORAD_CAT_ID><ELEMENT_SET_NO>999</ELEMENT_SET_NO><REV_AT_EPOCH>46234</REV_AT_EPOCH><BSTAR>-.28664647E-4</BSTAR><MEAN_MOTION_DOT>-.6E-6</MEAN_MOTION_DOT><MEAN_MOTION_DDOT>0</MEAN_MOTION_DDOT></tleParameters></data></segment></body></omm>
<omm id="CCSDS_OMM_VERS" version="2.0">
<header><CREATION_DATE/><ORIGINATOR/></header><body><segment><metadata><OBJECT_NAME>IRIDIUM 105</OBJECT_NAME><OBJECT_ID>2017-003E</OBJECT_ID><CENTER_NAME>EARTH</CENTER_NAME><REF_FRAME>TEME</REF_FRAME><TIME_SYSTEM>UTC</TIME_SYSTEM><MEAN_ELEMENT_THEORY>SGP4</MEAN_ELEMENT_THEORY></metadata><data><meanElements><EPOCH>2025-11-13T22:21:49.495968</EPOCH><MEAN_MOTION>14.34218756</MEAN_MOTION><ECCENTRICITY>.0002032</ECCENTRICITY><INCLINATION>86.3970</INCLINATION><RA_OF_ASC_NODE>146.8659</RA_OF_ASC_NODE><ARG_OF_PERICENTER>84.5886</ARG_OF_PERICENTER><MEAN_ANOMALY>275.5542</MEAN_ANOMALY></meanElements><tleParameters><EPHEMERIS_TYPE>0</EPHEMERIS_TYPE><CLASSIFICATION_TYPE>U</CLASSIFICATION_TYPE><NORAD_CAT_ID>41921</NORAD_CAT_ID><ELEMENT_SET_NO>999</ELEMENT_SET_NO><REV_AT_EPOCH>46428</REV_AT_EPOCH><BSTAR>.49704347E-4</BSTAR><MEAN_MOTION_DOT>.159E-5</MEAN_MOTION_DOT><MEAN_MOTION_DDOT>0</MEAN_MOTION_DDOT></tleParameters></data></segment></body></omm>
<omm id="CCSDS_OMM_VERS" version="2.0">
<header><CREATION_DATE/><ORIGINATOR/></header><body><segment><metadata><OBJECT_NAME>IRIDIUM 104</OBJECT_NAME><OBJECT_ID>2017-003F</OBJECT_ID><CENTER_NAME>EARTH</CENTER_NAME><REF_FRAME>TEME</REF_FRAME><TIME_SYSTEM>UTC</TIME_SYSTEM><MEAN_ELEMENT_THEORY>SGP4</MEAN_ELEMENT_THEORY></metadata><data><meanElements><EPOCH>2025-11-13T08:18:01.815840</EPOCH><MEAN_MOTION>14.34219136</MEAN_MOTION><ECCENTRICITY>.00022724</ECCENTRICITY><INCLINATION>86.4007</INCLINATION><RA_OF_ASC_NODE>178.6485</RA_OF_ASC_NODE><ARG_OF_PERICENTER>77.1590</ARG_OF_PERICENTER><MEAN_ANOMALY>282.9860</MEAN_ANOMALY></meanElements><tleParameters><EPHEMERIS_TYPE>0</EPHEMERIS_TYPE><CLASSIFICATION_TYPE>U</CLASSIFICATION_TYPE><NORAD_CAT_ID>41922</NORAD_CAT_ID><ELEMENT_SET_NO>999</ELEMENT_SET_NO><REV_AT_EPOCH>46233</REV_AT_EPOCH><BSTAR>.24572662E-3</BSTAR><MEAN_MOTION_DOT>.708E-5</MEAN_MOTION_DOT><MEAN_MOTION_DDOT>0</MEAN_MOTION_DDOT></tleParameters></data></segment></body></omm>
<omm id="CCSDS_OMM_VERS" version="2.0">
<header><CREATION_DATE/><ORIGINATOR/></header><body><segment><metadata><OBJECT_NAME>IRIDIUM 114</OBJECT_NAME><OBJECT_ID>2017-003G</OBJECT_ID><CENTER_NAME>EARTH</CENTER_NAME><REF_FRAME>TEME</REF_FRAME><TIME_SYSTEM>UTC</TIME_SYSTEM><MEAN_ELEMENT_THEORY>SGP4</MEAN_ELEMENT_THEORY></metadata><data><meanElements><EPOCH>2025-11-13T15:09:02.592864</EPOCH><MEAN_MOTION>14.34218452</MEAN_MOTION><ECCENTRICITY>.00020553</ECCENTRICITY><INCLINATION>86.4005</INCLINATION><RA_OF_ASC_NODE>178.5134</RA_OF_ASC_NODE><ARG_OF_PERICENTER>79.2890</ARG_OF_PERICENTER><MEAN_ANOMALY>280.8537</MEAN_ANOMALY></meanElements><tleParameters><EPHEMERIS_TYPE>0</EPHEMERIS_TYPE><CLASSIFICATION_TYPE>U</CLASSIFICATION_TYPE><NORAD_CAT_ID>41923</NORAD_CAT_ID><ELEMENT_SET_NO>999</ELEMENT_SET_NO><REV_AT_EPOCH>46235</REV_AT_EPOCH><BSTAR>.22704107E-3</BSTAR><MEAN_MOTION_DOT>.656E-5</MEAN_MOTION_DOT><MEAN_MOTION_DDOT>0</MEAN_MOTION_DDOT></tleParameters></data></segment></body></omm>
<omm id="CCSDS_OMM_VERS" version="2.0">
<header><CREATION_DATE/><ORIGINATOR/></header><body><segment><metadata><OBJECT_NAME>IRIDIUM 108</OBJECT_NAME><OBJECT_ID>2017-003H</OBJECT_ID><CENTER_NAME>EARTH</CENTER_NAME><REF_FRAME>TEME</REF_FRAME><TIME_SYSTEM>UTC</TIME_SYSTEM><MEAN_ELEMENT_THEORY>SGP4</MEAN_ELEMENT_THEORY></metadata><data><meanElements><EPOCH>2025-11-13T12:28:50.392416</EPOCH><MEAN_MOTION>14.34218407</MEAN_MOTION><ECCENTRICITY>.00021456</ECCENTRICITY><INCLINATION>86.3965</INCLINATION><RA_OF_ASC_NODE>146.9300</RA_OF_ASC_NODE><ARG_OF_PERICENTER>92.5354</ARG_OF_PERICENTER><MEAN_ANOMALY>267.6087</MEAN_ANOMALY></meanElements><tleParameters><EPHEMERIS_TYPE>0</EPHEMERIS_TYPE><CLASSIFICATION_TYPE>U</CLASSIFICATION_TYPE><NORAD_CAT_ID>41924</NORAD_CAT_ID><ELEMENT_SET_NO>999</ELEMENT_SET_NO><REV_AT_EPOCH>46419</REV_AT_EPOCH><BSTAR>.31891832E-4</BSTAR><MEAN_MOTION_DOT>.109E-5</MEAN_MOTION_DOT><MEAN_MOTION_DDOT>0</MEAN_MOTION_DDOT></tleParameters></data></segment></body></omm>

</ndm>
