IRIDIUM 106             
1 41917U 17003A   25317.58053214  .00000391  00000+0  13254-3 0  9999
2 41917  86.4006 178.6266 0001639  91.0016 269.1368 14.34219932462308
IRIDIUM 103             
1 41918U 17003B   25317.35854239  .00000325  00000+0  10894-3 0  9995
2 41918  86.4005 178.6197 0001954  72.9587 287.1823 14.34219509462296
IRIDIUM 109             
1 41919U 17003C   25316.87650869 -.00000066  00000+0 -30664-4 0  9997
2 41919  86.4016 178.8766 0001908  81.3891 278.7521 14.34216682462193
IRIDIUM 102             
1 41920U 17003D   25317.33317267 -.00000060  00000+0 -28665-4 0  9995
2 41920  86.4006 178.6145 0002044  87.0559 273.0871 14.34219967462341
IRIDIUM 105             
1 41921U 17003E   25317.93182287  .00000159  00000+0  49704-4 0  9998
2 41921  86.3970 146.8659 0002032  84.5886 275.5542 14.34218756464282
IRIDIUM 104             
1 41922U 17003F   25317.34585435  .00000708  00000+0  24573-3 0  9992
2 41922  86.4007 178.6485 0002272  77.1590 282.9860 14.34219136462333
IRIDIUM 114             
1 41923U 17003G   25317.63128001  .00000656  00000+0  22704-3 0  9993
2 41923  86.4005 178.5134 0002055  79.2890 280.8537 14.34218452462357
IRIDIUM 108             
1 41924U 17003H   25317.52002769  .00000109  00000+0  31892-4 0  9996
2 41924  86.3965 146.9300 0002145  92.5354 267.6087 14.34218407464196
